NORAD_CAT_ID,OBJECT_NAME,OBJECT_TYPE,EPOCH,MEAN_MOTION,ECCENTRICITY,INCLINATION,RA_OF_ASC_NODE,ARG_OF_PERICENTER,MEAN_ANOMALY,BSTAR,MEAN_MOTION_DOT,MEAN_MOTION_DDOT,TLE_LINE0,TLE_LINE1,TLE_LINE2,SEMIMAJOR_AXIS,PERIOD,APOGEE,PERIGEE,DECAYED
51801.0,STARLINK-3592,PAYLOAD,2022-08-27 14:00:01,15.08862344,0.000148,53.2169,20.6236,66.895,232.4474,-0.0013713,-0.00022059,0.0,0 STARLINK-3592,1 51801U 22017AK  22239.58334491 -.00022059  00000-0 -13713-2 0  9999,2 51801  53.2169  20.6236 0001480  66.8950 232.4474 15.08862344  1300,6917.812,95.436,540.701,538.653,0.0
51801.0,STARLINK-3592,PAYLOAD,2022-08-27 22:00:00,15.08863864,0.0001520999999999,53.2168,19.1278,60.6682,250.2841,-0.0010276,-0.00016616,0.0,0 STARLINK-3592,1 51801U 22017AK  22239.91667824 -.00016616  00000-0 -10276-2 0  9998,2 51801  53.2168  19.1278 0001521  60.6682 250.2841 15.08863864  1302,6917.807,95.436,540.725,538.62,0.0
51801.0,STARLINK-3592,PAYLOAD,2022-08-28 12:00:00,15.088560199999998,0.0001591,53.2176,16.5081,69.5529,171.7103,-0.00098101,-0.00015874,0.0,0 STARLINK-3592,1 51801U 22017AK  22240.50001157 -.00015874  00000-0 -98101-3 0  9995,2 51801  53.2176  16.5081 0001591  69.5529 171.7103 15.08856020 29291,6917.831,95.437,540.797,538.596,0.0
51801.0,STARLINK-3592,PAYLOAD,2022-08-28 14:00:01,15.08855567,0.0001617,53.2175,16.1345,66.3775,267.7878,-0.0012059,-0.00019437,0.0,0 STARLINK-3592,1 51801U 22017AK  22240.58334491 -.00019437  00000-0 -12059-2 0  9999,2 51801  53.2175  16.1345 0001617  66.3775 267.7878 15.08855567  1308,6917.833000000001,95.437,540.816,538.5790000000002,0.0
51801.0,STARLINK-3592,PAYLOAD,2022-08-28 22:00:00,15.08861134,0.0001575999999999,53.2175,14.6386,60.58,285.1814,-0.0021491999999999,-0.0003435,0.0,0 STARLINK-3592,1 51801U 22017AK  22240.91667824 -.00034350  00000-0 -21492-2 0  9997,2 51801  53.2175  14.6386 0001576  60.5800 285.1814 15.08861134  1306,6917.816,95.436,540.771,538.591,0.0
51801.0,STARLINK-3592,PAYLOAD,2022-08-29 14:00:01,15.0884262,0.0001520999999999,53.218,11.6457,63.9547,304.9925,-0.0014105,-0.00022667,0.0,0 STARLINK-3592,1 51801U 22017AK  22241.58334491 -.00022667  00000-0 -14105-2 0  9993,2 51801  53.2180  11.6457 0001521  63.9547 304.9925 15.08842620  1305,6917.871999999999,95.437,540.79,538.685,0.0
51801.0,STARLINK-3592,PAYLOAD,2022-08-29 22:00:00,15.08846276,0.0001513,53.2179,10.1496,58.9332,321.6038,2.1951e-05,6.1e-07,0.0,0 STARLINK-3592,1 51801U 22017AK  22241.91667824  .00000061  00000-0  21951-4 0  9990,2 51801  53.2179  10.1496 0001513  58.9332 321.6038 15.08846276 29512,6917.861,95.437,540.773,538.68,0.0
51801.0,STARLINK-3592,PAYLOAD,2022-08-30 14:00:01,15.08872005,0.0001448,53.2181,7.157,62.5723,341.1593,-0.0039238,-0.0006225,0.0,0 STARLINK-3592,1 51801U 22017AK  22242.58334491 -.00062250  00000-0 -39238-2 0  9990,2 51801  53.2181   7.1570 0001448  62.5723 341.1593 15.08872005  1305,6917.783,95.436,540.649,538.646,0.0
51801.0,STARLINK-3592,PAYLOAD,2022-08-30 22:00:00,15.08838544,0.0001376999999999,53.2178,5.6607,57.0049,358.3351,-0.0004714999999999,-7.784e-05,0.0,0 STARLINK-3592,1 51801U 22017AK  22242.91667824 -.00007784  00000-0 -47150-3 0  9990,2 51801  53.2178   5.6607 0001377  57.0049 358.3351 15.08838544  1308,6917.885,95.438,540.702,538.797,0.0
51801.0,STARLINK-3592,PAYLOAD,2022-08-31 14:00:01,15.08862615,0.0001409,53.2178,2.6684,61.8622,16.6568,-0.0036728,-0.00058303,0.0,0 STARLINK-3592,1 51801U 22017AK  22243.58334491 -.00058303  00000-0 -36728-2 0  9996,2 51801  53.2178   2.6684 0001409  61.8622  16.6568 15.08862615  1306,6917.811,95.436,540.651,538.702,0.0
51801.0,STARLINK-3592,PAYLOAD,2022-08-31 22:00:00,15.08833275,0.0001450999999999,53.2174,1.1718,60.6884,29.427,-0.0014345999999999,-0.00023043,0.0,0 STARLINK-3592,1 51801U 22017AK  22243.91667824 -.00023043  00000-0 -14346-2 0  9997,2 51801  53.2174   1.1718 0001451  60.6884  29.4270 15.08833275 29816,6917.901,95.438,540.77,538.762,0.0
51801.0,STARLINK-3592,PAYLOAD,2022-09-01 12:00:00,15.08842774,0.0001419,53.2174,358.5533,65.9502,314.42,-0.0016680999999999,-0.0002674,0.0,0 STARLINK-3592,1 51801U 22017AK  22244.50001157 -.00026740  00000-0 -16681-2 0  9995,2 51801  53.2174 358.5533 0001419  65.9502 314.4200 15.08842774 29903,6917.871999999999,95.437,540.719,538.755,0.0
51801.0,STARLINK-3592,PAYLOAD,2022-09-01 14:00:01,15.08834336,0.0001465999999999,53.2172,358.1796,63.6231,49.7094,-0.00092481,-0.00014974,0.0,0 STARLINK-3592,1 51801U 22017AK  22244.58335648 -.00014974  00000-0 -92481-3 0  9997,2 51801  53.2172 358.1796 0001466  63.6231  49.7094 15.08834336  1302,6917.898,95.438,540.7769999999998,538.749,0.0
51801.0,STARLINK-3592,PAYLOAD,2022-09-01 22:00:00,15.08847482,0.0001443999999999,53.2168,356.6829,60.9081,63.9422,-0.0011277999999999,-0.00018196,0.0,0 STARLINK-3592,1 51801U 22017AK  22244.91667824 -.00018196  00000-0 -11278-2 0  9992,2 51801  53.2168 356.6829 0001444  60.9081  63.9422 15.08847482  1305,6917.858,95.437,540.721,538.724,0.0
51801.0,STARLINK-3592,PAYLOAD,2022-09-02 04:00:00,15.08813929,0.000133,53.2168,355.5594,68.8466,334.7087,0.0030145,0.0004798,0.0,0 STARLINK-3592,1 51801U 22017AK  22245.16667824  .00047980  00000-0  30145-2 0  9995,2 51801  53.2168 355.5594 0001330  68.8466 334.7087 15.08813929 30004,6917.96,95.439,540.745,538.905,0.0
51801.0,STARLINK-3592,PAYLOAD,2022-09-02 14:00:01,15.08856084,0.0001521999999999,53.2167,353.6906,63.1341,84.90700000000002,-0.0021070999999999,-0.00033681,0.0,0 STARLINK-3592,1 51801U 22017AK  22245.58334491 -.00033681  00000-0 -21071-2 0  9995,2 51801  53.2167 353.6906 0001522  63.1341  84.9070 15.08856084  1308,6917.831,95.437,540.749,538.643,0.0
51801.0,STARLINK-3592,PAYLOAD,2022-09-02 22:00:01,15.08845258,0.0001534,53.2165,352.1936,61.9149,97.7884,-0.002225,-0.0003553,0.0,0 STARLINK-3592,1 51801U 22017AK  22245.91668981 -.00035530  00000-0 -22250-2 0  9991,2 51801  53.2165 352.1936 0001534  61.9149  97.7884 15.08845258 30115,6917.864000000001,95.437,540.7909999999998,538.668,0.0
51801.0,STARLINK-3592,PAYLOAD,2022-09-03 12:00:00,15.08845742,0.0001591,53.2166,349.5751,64.8145,25.0961,-0.001522,-0.00024433,0.0,0 STARLINK-3592,1 51801U 22017AK  22246.50001157 -.00024433  00000-0 -15220-2 0  9992,2 51801  53.2166 349.5751 0001591  64.8145  25.0961 15.08845742 30200,6917.863,95.437,540.828,538.627,0.0
51801.0,STARLINK-3592,PAYLOAD,2022-09-03 14:00:01,15.08833692,0.0001629,53.2166,349.2014,62.5825,120.2296,-0.00012579,-2.289e-05,0.0,0 STARLINK-3592,1 51801U 22017AK  22246.58334491 -.00002289  00000-0 -12579-3 0  9990,2 51801  53.2166 349.2014 0001629  62.5825 120.2296 15.08833692  1300,6917.9,95.438,540.8919999999998,538.638,0.0
51801.0,STARLINK-3592,PAYLOAD,2022-09-03 22:00:00,15.08864217,0.0001579,53.2166,347.7042,61.1379,133.267,-0.0013445,-0.00021636,0.0,0 STARLINK-3592,1 51801U 22017AK  22246.91667824 -.00021636  00000-0 -13445-2 0  9995,2 51801  53.2166 347.7042 0001579  61.1379 133.2670 15.08864217 30261,6917.806,95.436,540.764,538.5790000000002,0.0
51801.0,STARLINK-3592,PAYLOAD,2022-09-04 14:00:01,15.08853307,0.0001571,53.2169,344.7119,58.3524,159.3582,-0.0015133,-0.000243,0.0,0 STARLINK-3592,1 51801U 22017AK  22247.58335648 -.00024300  00000-0 -15133-2 0  9992,2 51801  53.2169 344.7119 0001571  58.3524 159.3582 15.08853307 30368,6917.84,95.437,540.7919999999998,538.618,0.0
51801.0,STARLINK-3592,PAYLOAD,2022-09-04 20:00:01,15.08859339,0.0001494,53.2169,343.5893,53.3696,82.9902,-0.0014718,-0.00023648,0.0,0 STARLINK-3592,1 51801U 22017AK  22247.83334491 -.00023648  00000-0 -14718-2 0  9997,2 51801  53.2169 343.5893 0001494  53.3696  82.9902 15.08859339  1303,6917.821,95.436,540.72,538.653,0.0
51801.0,STARLINK-3592,PAYLOAD,2022-09-05 04:00:00,15.08828754,0.000131,53.2173,342.0913,60.3025,87.6767,0.0037445,0.00059793,0.0,0 STARLINK-3592,1 51801U 22017AK  22248.16667824  .00059793  00000-0  37445-2 0  9993,2 51801  53.2173 342.0913 0001310  60.3025  87.6767 15.08828754 30452,6917.915,95.438,540.686,538.874,0.0
51801.0,STARLINK-3592,PAYLOAD,2022-09-05 12:00:00,15.08880924,0.0001443999999999,53.2174,340.5963,55.1208,104.4599,-0.0040412,-0.00064103,0.0,0 STARLINK-3592,1 51801U 22017AK  22248.50001157 -.00064103  00000-0 -40412-2 0  9993,2 51801  53.2174 340.5963 0001444  55.1208 104.4599 15.08880924 30508,6917.755,95.435,540.619,538.621,0.0
51801.0,STARLINK-3592,PAYLOAD,2022-09-05 14:00:01,15.08862359,0.000148,53.2175,340.2225,53.6359,198.8542,-0.0029441,-0.00046867,0.0,0 STARLINK-3592,1 51801U 22017AK  22248.58334491 -.00046867  00000-0 -29441-2 0  9997,2 51801  53.2175 340.2225 0001480  53.6359 198.8542 15.08862359  1300,6917.812,95.436,540.701,538.653,0.0
51801.0,STARLINK-3592,PAYLOAD,2022-09-05 22:00:00,15.08849579,0.0001479,53.2176,338.7252,55.2403,208.851,-0.0058039,-0.00091509,0.0,0 STARLINK-3592,1 51801U 22017AK  22248.91667824 -.00091509  00000-0 -58039-2 0  9991,2 51801  53.2176 338.7252 0001479  55.2403 208.8510 15.08849579  1305,6917.851,95.437,540.739,538.693,0.0
51801.0,STARLINK-3592,PAYLOAD,2022-09-06 04:00:00,15.08772638,0.0001478,53.2177,337.602,63.6256,119.1536,0.0032164,0.00051178,0.0,0 STARLINK-3592,1 51801U 22017AK  22249.16667824  .00051178  00000-0  32164-2 0  9996,2 51801  53.2177 337.6020 0001478  63.6256 119.1536 15.08772638 30603,6918.0859999999975,95.442,540.974,538.929,0.0
51801.0,STARLINK-3592,PAYLOAD,2022-09-06 12:00:00,15.08836243,0.0001468,53.2174,336.1094,51.3422,142.8916,4.8054e-05,4.77e-06,0.0,0 STARLINK-3592,1 51801U 22017AK  22249.50001157  .00000477  00000-0  48054-4 0  9998,2 51801  53.2174 336.1094 0001468  51.3422 142.8916 15.08836243 30656,6917.892,95.438,540.7719999999998,538.741,0.0
51801.0,STARLINK-3592,PAYLOAD,2022-09-06 14:00:01,15.08836769,0.0001496,53.2175,335.7356,50.1958,236.9355,2.1641e-05,5.6e-07,0.0,0 STARLINK-3592,1 51801U 22017AK  22249.58334491  .00000056  00000-0  21641-4 0  9992,2 51801  53.2175 335.7356 0001496  50.1958 236.9355 15.08836769  1300,6917.89,95.438,540.79,538.72,0.0
